STARLINK-31217          
1 59036U 24038P   26170.71366750  .00000575  00000+0  30426-4 0  9996
2 59036  43.0038  73.0399 0001036 268.9742  91.0991 15.27572748131543
STARLINK-31208          
1 59037U 24038Q   26170.96299973 -.00000468  00000+0 -75180-5 0  9996
2 59037  42.9979 169.9069 0000452 254.0235 106.0567 15.27568298130459
STARLINK-31235          
1 59038U 24038R   26170.00438278  .00000259  00000+0  18950-4 0  9992
2 59038  43.0003 171.3350 0001498 268.9639  91.1041 15.27576906130291
STARLINK-31220          
1 59039U 24038S   26170.07185141  .00000495  00000+0  27539-4 0  9993
2 59039  43.0031 174.4315 0001626 275.0882  84.9784 15.27574651130266
STARLINK-31225          
1 59040U 24038T   26170.44798175 -.00022970  00000+0 -83024-3 0  9997
2 59040  43.0005 168.6090 0000623 209.5273 150.5544 15.27483203130251
STARLINK-31240          
1 59041U 24038U   26170.29034017  .00000703  00000+0  35063-4 0  9998
2 59041  43.0006 170.0443 0001036 272.3203  87.7530 15.27580452130331
STARLINK-31202          
1 59042U 24038V   26170.28052901  .00004510  00000+0  16722-3 0  9990
2 59042  43.0012 169.1200 0002704 190.4708 169.6088 15.28771169130406
STARLINK-31234          
1 59043U 24038W   26170.28390883  .00000736  00000+0  36257-4 0  9997
2 59043  43.0014 169.9945 0001379 292.7415  67.3290 15.27605324130228
STARLINK-31153          
1 59044U 24038X   26170.06591307  .00001075  00000+0  48613-4 0  9994
2 59044  43.0025 170.9384 0001711 273.3744  86.6912 15.27575226130198
STARLINK-31241          
1 59045U 24038Y   26170.28778804  .00001674  00000+0  70404-4 0  9996
2 59045  42.9992 170.0212 0001603 284.4584  75.6089 15.27558096130397
STARLINK-31205          
1 59046U 24038Z   26170.28006863  .00000362  00000+0  22689-4 0  9991
2 59046  43.0012 169.9641 0001447 265.1063  94.9623 15.27575057130338
METEOR-M2 4             
1 59051U 24039A   26170.92677279  .00000006  00000+0  22197-4 0  9993
2 59051  98.7011 130.1904 0007440 153.4437 206.7124 14.22429787119658
PARS 1                  
1 59065U 24039Q   26170.96868874  .00009562  00000+0  19899-3 0  9995
2 59065  97.4827 151.9760 0011540 103.3207 256.9330 15.45773457129075
SITRO-AIS 25            
1 59066U 24039R   26170.92211586  .00002176  00000+0  17171-3 0  9999
2 59066  95.3912 236.9720 0143186 319.1139  39.9414 14.93524962125133
SITRO-AIS 26            
1 59067U 24039S   26170.92386174  .00002093  00000+0  16605-3 0  9995
2 59067  95.3909 236.8703 0143541 319.6993  39.3661 14.93320500125127
SITRO-AIS 27            
1 59068U 24039T   26170.96032529  .00001784  00000+0  14072-3 0  9994
2 59068  95.3913 237.1683 0142574 318.1693  40.8704 14.93740595125158
HULIANWAN GAOGUI-01 (H*)
1 59069U 24040A   26170.82832531  .00000150  00000+0  00000+0 0  9991
2 59069   0.0682 330.3323 0002752  70.3734 199.1051  1.00269307  7353
SITRO-AIS 28            
1 59071U 24039U   26170.93770810  .00002109  00000+0  16576-3 0  9990
2 59071  95.3912 237.2002 0142450 318.0793  40.9594 14.93774993125157
MARAFON-D GVM           
1 59072U 24039V   26170.93091586  .00000200  00000+0  51746-4 0  9996
2 59072  88.9831 283.5179 0015325 334.9578  25.0882 14.46011988121586
STARLINK-31265          
1 59074U 24041A   26170.51088996  .00000390  00000+0  23686-4 0  9998
2 59074  43.0037  95.6821 0000992 279.6810  80.3930 15.27591980129842
STARLINK-31276          
1 59075U 24041B   26170.80569826 -.00000900  00000+0 -23210-4 0  9999
2 59075  43.0005  93.5965 0001297 272.3712  87.6991 15.27569243129949
STARLINK-31259          
1 59076U 24041C   26170.48264901 -.00002757  00000+0 -90809-4 0  9990
2 59076  43.0002  95.4734 0000334 316.8677  43.2148 15.27552445128797
STARLINK-31281          
1 59077U 24041D   26170.48647576  .00001164  00000+0  51799-4 0  9998
2 59077  43.0042  95.5009 0000562 281.8615  78.2173 15.27581593129898
STARLINK-31274          
1 59078U 24041E   26170.51602601  .00000492  00000+0  27398-4 0  9994
2 59078  43.0072  95.7140 0001567 259.3786 100.6889 15.27575298129849
STARLINK-31257          
1 59079U 24041F   26170.82625534  .00001156  00000+0  51515-4 0  9995
2 59079  43.0042  93.7480 0001001 264.1432  95.9306 15.27579683129894
STARLINK-31292          
1 59081U 24041H   26170.49032946  .00000479  00000+0  26929-4 0  9998
2 59081  43.0034  95.5291 0000927 283.5667  76.5082 15.27577032129835
STARLINK-31286          
1 59082U 24041J   26170.49417159  .00003063  00000+0  12071-3 0  9996
2 59082  43.0021  95.5604 0001139 263.6421  96.4301 15.27598603129925
STARLINK-31252          
1 59083U 24041K   26170.61882270  .00001026  00000+0  46784-4 0  9997
2 59083  43.0028  11.8754 0001081 255.4685 104.6047 15.27584196130863
STARLINK-31261          
1 59084U 24041L   26170.84938282  .00000393  00000+0  23819-4 0  9998
2 59084  43.0050  93.9167 0001380 270.1075  89.9618 15.27579094129944
STARLINK-31290          
1 59085U 24041M   26170.80505942  .00001171  00000+0  52111-4 0  9990
2 59085  43.0037  79.7435 0001131 278.4775  81.5949 15.27549324130199
