OBJECT_NAME,OBJECT_ID,EPOCH,MEAN_MOTION,ECCENTRICITY,INCLINATION,RA_OF_ASC_NODE,ARG_OF_PERICENTER,MEAN_ANOMALY,EPHEMERIS_TYPE,CLASSIFICATION_TYPE,NORAD_CAT_ID,ELEMENT_SET_NO,REV_AT_EPOCH,BSTAR,MEAN_MOTION_DOT,MEAN_MOTION_DDOT
STARLINK-31217,2024-038P,2026-06-19T17:07:40.872000,15.27572748,.00010363,43.0038,73.0399,268.9742,91.0991,0,U,59036,999,13154,.30425784E-4,.575E-5,0
STARLINK-31208,2024-038Q,2026-06-19T23:06:43.176672,15.27568298,.0000452,42.9979,169.9069,254.0235,106.0567,0,U,59037,999,13045,-.751801E-5,-.468E-5,0
STARLINK-31235,2024-038R,2026-06-19T00:06:18.672192,15.27576906,.00014986,43.0003,171.3350,268.9639,91.1041,0,U,59038,999,13029,.18950243E-4,.259E-5,0
STARLINK-31220,2024-038S,2026-06-19T01:43:27.961824,15.27574651,.00016263,43.0031,174.4315,275.0882,84.9784,0,U,59039,999,13026,.27538503E-4,.495E-5,0
STARLINK-31225,2024-038T,2026-06-19T10:45:05.623200,15.27483203,.00006232,43.0005,168.6090,209.5273,150.5544,0,U,59040,999,13025,-.83024052E-3,-.2297E-3,0
STARLINK-31240,2024-038U,2026-06-19T06:58:05.390688,15.27580452,.00010366,43.0006,170.0443,272.3203,87.7530,0,U,59041,999,13033,.35063179E-4,.703E-5,0
STARLINK-31202,2024-038V,2026-06-19T06:43:57.706464,15.28771169,.00027046,43.0012,169.1200,190.4708,169.6088,0,U,59042,999,13040,.1672199E-3,.451E-4,0
STARLINK-31234,2024-038W,2026-06-19T06:48:49.722912,15.27605324,.00013794,43.0014,169.9945,292.7415,67.3290,0,U,59043,999,13022,.36257068E-4,.736E-5,0
STARLINK-31153,2024-038X,2026-06-19T01:34:54.889248,15.27575226,.00017115,43.0025,170.9384,273.3744,86.6912,0,U,59044,999,13019,.48613086E-4,.1075E-4,0
STARLINK-31241,2024-038Y,2026-06-19T06:54:24.886656,15.27558096,.00016032,42.9992,170.0212,284.4584,75.6089,0,U,59045,999,13039,.70403944E-4,.1674E-4,0
STARLINK-31205,2024-038Z,2026-06-19T06:43:17.929632,15.27575057,.0001447,43.0012,169.9641,265.1063,94.9623,0,U,59046,999,13033,.22689174E-4,.362E-5,0
METEOR-M2 4,2024-039A,2026-06-19T22:14:33.169056,14.22429787,.00074408,98.7011,130.1904,153.4437,206.7124,0,U,59051,999,11965,.22196525E-4,.6E-7,0
PARS 1,2024-039Q,2026-06-19T23:14:54.707136,15.45773457,.00115406,97.4827,151.9760,103.3207,256.9330,0,U,59065,999,12907,.19898754E-3,.9562E-4,0
SITRO-AIS 25,2024-039R,2026-06-19T22:07:50.810304,14.93524962,.01431864,95.3912,236.9720,319.1139,39.9414,0,U,59066,999,12513,.17171175E-3,.2176E-4,0
SITRO-AIS 26,2024-039S,2026-06-19T22:10:21.654336,14.93320500,.01435414,95.3909,236.8703,319.6993,39.3661,0,U,59067,999,12512,.16604503E-3,.2093E-4,0
SITRO-AIS 27,2024-039T,2026-06-19T23:02:52.105056,14.93740595,.01425747,95.3913,237.1683,318.1693,40.8704,0,U,59068,999,12515,.14072016E-3,.1784E-4,0
HULIANWAN GAOGUI-01 (HG-01),2024-040A,2026-06-19T19:52:47.306784,1.00269307,.00027527,0.0682,330.3323,70.3734,199.1051,0,U,59069,999,735,0,.15E-5,0
SITRO-AIS 28,2024-039U,2026-06-19T22:30:17.979840,14.93774993,.01424508,95.3912,237.2002,318.0793,40.9594,0,U,59071,999,12515,.16575835E-3,.2109E-4,0
MARAFON-D GVM,2024-039V,2026-06-19T22:20:31.130304,14.46011988,.00153257,88.9831,283.5179,334.9578,25.0882,0,U,59072,999,12158,.51745635E-4,.2E-5,0
STARLINK-31265,2024-041A,2026-06-19T12:15:40.892544,15.27591980,.00009921,43.0037,95.6821,279.6810,80.3930,0,U,59074,999,12984,.23685665E-4,.39E-5,0
STARLINK-31276,2024-041B,2026-06-19T19:20:12.329664,15.27569243,.00012979,43.0005,93.5965,272.3712,87.6991,0,U,59075,999,12994,-.2321015E-4,-.9E-5,0
STARLINK-31259,2024-041C,2026-06-19T11:35:00.874464,15.27552445,.00003344,43.0002,95.4734,316.8677,43.2148,0,U,59076,999,12879,-.90809016E-4,-.2757E-4,0
STARLINK-31281,2024-041D,2026-06-19T11:40:31.505664,15.27581593,.00005629,43.0042,95.5009,281.8615,78.2173,0,U,59077,999,12989,.51799359E-4,.1164E-4,0
STARLINK-31274,2024-041E,2026-06-19T12:23:04.647264,15.27575298,.00015672,43.0072,95.7140,259.3786,100.6889,0,U,59078,999,12984,.27398251E-4,.492E-5,0
STARLINK-31257,2024-041F,2026-06-19T19:49:48.461376,15.27579683,.00010013,43.0042,93.7480,264.1432,95.9306,0,U,59079,999,12989,.51515263E-4,.1156E-4,0
STARLINK-31292,2024-041H,2026-06-19T11:46:04.465344,15.27577032,.00009276,43.0034,95.5291,283.5667,76.5082,0,U,59081,999,12983,.26929003E-4,.479E-5,0
STARLINK-31286,2024-041J,2026-06-19T11:51:36.425376,15.27598603,.00011394,43.0021,95.5604,263.6421,96.4301,0,U,59082,999,12992,.12071112E-3,.3063E-4,0
STARLINK-31252,2024-041K,2026-06-19T14:51:06.281280,15.27584196,.00010815,43.0028,11.8754,255.4685,104.6047,0,U,59083,999,13086,.46784477E-4,.1026E-4,0
STARLINK-31261,2024-041L,2026-06-19T20:23:06.675648,15.27579094,.00013808,43.0050,93.9167,270.1075,89.9618,0,U,59084,999,12994,.23818991E-4,.393E-5,0
STARLINK-31290,2024-041M,2026-06-19T19:19:17.133888,15.27549324,.00011319,43.0037,79.7435,278.4775,81.5949,0,U,59085,999,13019,.52110954E-4,.1171E-4,0
